NORAD_CAT_ID,OBJECT_NAME,OBJECT_TYPE,EPOCH,MEAN_MOTION,ECCENTRICITY,INCLINATION,RA_OF_ASC_NODE,ARG_OF_PERICENTER,MEAN_ANOMALY,BSTAR,MEAN_MOTION_DOT,MEAN_MOTION_DDOT,TLE_LINE0,TLE_LINE1,TLE_LINE2,SEMIMAJOR_AXIS,PERIOD,APOGEE,PERIGEE,DECAYED
53975.0,STARLINK-5137,PAYLOAD,2024-02-17 03:56:09,15.08845377,0.0001576,53.2178,352.4261,77.2448,282.8721,0.00088627,0.00013847,0.0,0 STARLINK-5137,1 53975U 22125M   24048.16400051  .00013847  00000-0  88627-3 0  9993,2 53975  53.2178 352.4261 0001576  77.2448 282.8721 15.08845377 76013,6917.864,95.437,540.819,538.639,0.0
53975.0,STARLINK-5137,PAYLOAD,2024-02-17 13:28:28,15.0884496,0.0001481,53.217,350.6421,83.6185,276.4975,0.00089018,0.0001391,0.0,0 STARLINK-5137,1 53975U 22125M   24048.56144004  .00013910  00000-0  89018-3 0  9996,2 53975  53.2170 350.6421 0001481  83.6185 276.4975 15.08844960 76003,6917.865,95.437,540.755,538.706,0.0
53975.0,STARLINK-5137,PAYLOAD,2024-02-18 05:22:18,15.08875081,0.0001536,53.2168,347.6651,99.3035,260.8131,0.001257,0.00019793,0.0,0 STARLINK-5137,1 53975U 22125M   24049.22382903  .00019793  00000-0  12570-2 0  9995,2 53975  53.2168 347.6651 0001536  99.3035 260.8131 15.08875081 76177,6917.773,95.435,540.701,538.576,0.0
53975.0,STARLINK-5137,PAYLOAD,2024-02-18 13:19:14,15.08850339,0.0001914,53.218,346.1809,87.5169,272.6042,4.8226e-05,4.8e-06,0.0,0 STARLINK-5137,1 53975U 22125M   24049.55503255  .00000480  00000-0  48226-4 0  9998,2 53975  53.2180 346.1809 0001914  87.5169 272.6042 15.08850339 76156,6917.849,95.437,541.038,538.39,0.0
53975.0,STARLINK-5137,PAYLOAD,2024-02-18 22:51:33,15.08854632,0.0001264,53.2167,344.3987,82.1876,277.9259,0.00023577,3.468e-05,0.0,0 STARLINK-5137,1 53975U 22125M   24049.95246717  .00003468  00000-0  23577-3 0  9999,2 53975  53.2167 344.3987 0001264  82.1876 277.9259 15.08854632 76217,6917.836,95.437,540.575,538.826,0.0
53975.0,STARLINK-5137,PAYLOAD,2024-02-19 05:13:05,15.08861442,0.0001408,53.2185,343.2044,103.8361,256.2788,0.0007233,0.00011249,0.0,0 STARLINK-5137,1 53975U 22125M   24050.21742338  .00011249  00000-0  72330-3 0  9997,2 53975  53.2185 343.2044 0001408 103.8361 256.2788 15.08861442 76325,6917.815,95.436,540.654,538.706,0.0
53975.0,STARLINK-5137,PAYLOAD,2024-02-19 22:42:20,15.08836142,0.0001773,53.2165,339.9335,133.6617,226.4522,0.00049403,7.582e-05,0.0,0 STARLINK-5137,1 53975U 22125M   24050.94606915  .00007582  00000-0  49403-3 0  9997,2 53975  53.2165 339.9335 0001773 133.6617 226.4522 15.08836142 76366,6917.892,95.438,540.984,538.531,0.0
53975.0,STARLINK-5137,PAYLOAD,2024-02-20 01:53:06,15.08838329,0.0001121,53.2168,339.3394,79.4946,280.6172,0.00025624,3.792e-05,0.0,0 STARLINK-5137,1 53975U 22125M   24051.07855299  .00003792  00000-0  25624-3 0  9991,2 53975  53.2168 339.3394 0001121  79.4946 280.6172 15.08838329 76459,6917.885,95.438,540.526,538.975,0.0
53975.0,STARLINK-5137,PAYLOAD,2024-02-20 05:03:53,15.08838637,0.0001153,53.2178,338.7459,74.2306,285.8813,0.00043852,6.698e-05,0.0,0 STARLINK-5137,1 53975U 22125M   24051.21103351  .00006698  00000-0  43852-3 0  9993,2 53975  53.2178 338.7459 0001153  74.2306 285.8813 15.08838637 76409,6917.885,95.438,540.547,538.952,0.0
53975.0,STARLINK-5137,PAYLOAD,2024-02-20 22:33:07,15.08848688,0.0001199,53.2181,335.4747,69.9519,290.1603,0.00066145,0.00010257,0.0,0 STARLINK-5137,1 53975U 22125M   24051.93967375  .00010257  00000-0  66145-3 0  9992,2 53975  53.2181 335.4747 0001199  69.9519 290.1603 15.08848688 76519,6917.854,95.437,540.548,538.889,0.0
53975.0,STARLINK-5137,PAYLOAD,2024-02-21 11:16:12,15.08849087,0.0001645,53.2181,333.0966,75.6235,284.494,0.00039243,5.965e-05,0.0,0 STARLINK-5137,1 53975U 22125M   24052.46959184  .00005965  00000-0  39243-3 0  9999,2 53975  53.2181 333.0966 0001645  75.6235 284.4940 15.08849087 76661,6917.853,95.437,540.856,538.58,0.0
53975.0,STARLINK-5137,PAYLOAD,2024-02-21 22:23:54,15.08836859,0.0001564,53.219,331.0168,102.084,258.0328,-0.00013096,-2.371e-05,0.0,0 STARLINK-5137,1 53975U 22125M   24052.93327333 -.00002371  00000-0 -13096-3 0  9994,2 53975  53.2190 331.0168 0001564 102.0840 258.0328 15.08836859 76660,6917.89,95.438,540.837,538.673,0.0
53975.0,STARLINK-5137,PAYLOAD,2024-02-22 03:10:04,15.08840688,0.0001482,53.22,330.1295,103.27,256.8457,0.00013601,1.877e-05,0.0,0 STARLINK-5137,1 53975U 22125M   24053.13199564  .00001877  00000-0  13601-3 0  9990,2 53975  53.2200 330.1295 0001482 103.2700 256.8457 15.08840688 76765,6917.878,95.438,540.769,538.718,0.0
53975.0,STARLINK-5137,PAYLOAD,2024-02-22 11:07:00,15.08841269,0.000152,53.2197,328.6424,98.7567,261.3598,5.7593e-05,6.29e-06,0.0,0 STARLINK-5137,1 53975U 22125M   24053.46319512  .00000629  00000-0  57593-4 0  9996,2 53975  53.2197 328.6424 0001520  98.7567 261.3598 15.08841269 76749,6917.877,95.437,540.793,538.69,0.0
53975.0,STARLINK-5137,PAYLOAD,2024-02-22 22:14:41,15.08844835,0.0001613,53.2199,326.5602,105.8971,254.2199,0.00010765,1.426e-05,0.0,0 STARLINK-5137,1 53975U 22125M   24053.92687246  .00001426  00000-0  10765-3 0  9994,2 53975  53.2199 326.5602 0001613 105.8971 254.2199 15.08844835 76816,6917.866,95.437,540.846,538.615,0.0
53975.0,STARLINK-5137,PAYLOAD,2024-02-23 10:57:46,15.08843438,0.0001189,53.2182,324.177,105.6272,254.4851,0.00010049,1.312e-05,0.0,0 STARLINK-5137,1 53975U 22125M   24054.45679160  .00001312  00000-0  10049-3 0  9998,2 53975  53.2182 324.1770 0001189 105.6272 254.4851 15.08843438 76969,6917.87,95.437,540.557,538.912,0.0
53975.0,STARLINK-5137,PAYLOAD,2024-02-23 22:05:29,15.08837713,0.0001445,53.2189,322.0975,97.943,262.1726,6.9133e-05,8.12e-06,0.0,0 STARLINK-5137,1 53975U 22125M   24054.92047642  .00000812  00000-0  69133-4 0  9997,2 53975  53.2189 322.0975 0001445  97.9430 262.1726 15.08837713 76960,6917.887,95.438,540.752,538.753,0.0
53975.0,STARLINK-5137,PAYLOAD,2024-02-24 10:48:34,15.08841353,0.0001591,53.2188,319.716,90.7799,269.3375,0.00011186,1.493e-05,0.0,0 STARLINK-5137,1 53975U 22125M   24055.45039623  .00001493  00000-0  11186-3 0  9996,2 53975  53.2188 319.7160 0001591  90.7799 269.3375 15.08841353 77111,6917.876,95.437,540.842,538.641,0.0
53975.0,STARLINK-5137,PAYLOAD,2024-02-25 10:39:21,15.08847985,0.0001431,53.2178,315.2543,94.06,266.0556,0.00022701,3.328e-05,0.0,0 STARLINK-5137,1 53975U 22125M   24056.44399324  .00003328  00000-0  22701-3 0  9997,2 53975  53.2178 315.2543 0001431  94.0600 266.0556 15.08847985 77197,6917.856,95.437,540.711,538.731,0.0
53975.0,STARLINK-5137,PAYLOAD,2024-02-25 23:22:26,15.08846094,0.0001377,53.2173,312.8756,99.4138,260.701,0.00030453,4.563e-05,0.0,0 STARLINK-5137,1 53975U 22125M   24056.97391366  .00004563  00000-0  30453-3 0  9998,2 53975  53.2173 312.8756 0001377  99.4138 260.7010 15.08846094 77270,6917.862,95.437,540.679,538.774,0.0
53975.0,STARLINK-5137,PAYLOAD,2024-02-26 20:02:27,15.08839773,0.0001271,53.216,309.0105,95.9406,264.1731,5.4596e-05,5.81e-06,0.0,0 STARLINK-5137,1 53975U 22125M   24057.83503512  .00000581  00000-0  54596-4 0  9993,2 53975  53.2160 309.0105 0001271  95.9406 264.1731 15.08839773 77470,6917.881,95.438,540.625,538.867,0.0
53975.0,STARLINK-5137,PAYLOAD,2024-02-26 21:37:50,15.08840448,0.0001267,53.2161,308.7131,96.361,263.7526,4.9751e-05,5.04e-06,0.0,0 STARLINK-5137,1 53975U 22125M   24057.90127528  .00000504  00000-0  49751-4 0  9992,2 53975  53.2161 308.7131 0001267  96.3610 263.7526 15.08840448 77415,6917.879,95.438,540.621,538.868,0.0
53975.0,STARLINK-5137,PAYLOAD,2024-02-27 02:23:59,15.08841275,0.0001223,53.2158,307.8209,94.1186,265.9946,8.7631e-05,1.107e-05,0.0,0 STARLINK-5137,1 53975U 22125M   24058.09999449  .00001107  00000-0  87631-4 0  9991,2 53975  53.2158 307.8209 0001223  94.1186 265.9946 15.08841275 77445,6917.876,95.437,540.588,538.895,0.0
53975.0,STARLINK-5137,PAYLOAD,2024-02-27 23:04:00,15.08841263,0.0001274,53.2172,303.9542,95.4266,264.6871,2.7963e-05,1.57e-06,0.0,0 STARLINK-5137,1 53975U 22125M   24058.96111558  .00000157  00000-0  27963-4 0  9990,2 53975  53.2172 303.9542 0001274  95.4266 264.6871 15.08841263 77571,6917.877,95.437,540.623,538.86,0.0
53975.0,STARLINK-5137,PAYLOAD,2024-02-28 19:44:01,15.08834708,0.0001349,53.2169,300.0881,105.3514,254.7628,5.2801e-05,5.52e-06,0.0,0 STARLINK-5137,1 53975U 22125M   24059.82224130  .00000552  00000-0  52801-4 0  9995,2 53975  53.2169 300.0881 0001349 105.3514 254.7628 15.08834708 77779,6917.897,95.438,540.695,538.828,0.0
53975.0,STARLINK-5137,PAYLOAD,2024-02-28 22:54:47,15.08836068,0.0001315,53.2172,299.4945,94.6653,265.4489,5.4713e-05,5.83e-06,0.0,0 STARLINK-5137,1 53975U 22125M   24059.95472107  .00000583  00000-0  54713-4 0  9996,2 53975  53.2172 299.4945 0001315  94.6653 265.4489 15.08836068 77722,6917.892,95.438,540.667,538.848,0.0
53975.0,STARLINK-5137,PAYLOAD,2024-02-29 08:27:06,15.08840462,0.0001311,53.2174,297.7103,94.4686,265.6456,3.6054e-05,2.86e-06,0.0,0 STARLINK-5137,1 53975U 22125M   24060.35215951  .00000286  00000-0  36054-4 0  9992,2 53975  53.2174 297.7103 0001311  94.4686 265.6456 15.08840462 77786,6917.879,95.438,540.651,538.837,0.0
53975.0,STARLINK-5137,PAYLOAD,2024-02-29 22:45:34,15.0884343,0.0001225,53.2166,295.0357,95.1627,264.9505,9.4511e-05,1.217e-05,0.0,0 STARLINK-5137,1 53975U 22125M   24060.94831700  .00001217  00000-0  94511-4 0  9990,2 53975  53.2166 295.0357 0001225  95.1627 264.9505 15.08843430 77871,6917.87,95.437,540.582,538.887,0.0
53975.0,STARLINK-5137,PAYLOAD,2024-03-01 01:56:20,15.0884588,0.0001266,53.217,294.4404,94.2899,265.8237,0.00011329,1.516e-05,0.0,0 STARLINK-5137,1 53975U 22125M   24061.08079468  .00001516  00000-0  11329-3 0  9998,2 53975  53.2170 294.4404 0001266  94.2899 265.8237 15.08845880 77961,6917.862,95.437,540.603,538.852,0.0
53975.0,STARLINK-5137,PAYLOAD,2024-03-01 08:17:53,15.08843661,0.0001183,53.2164,293.2504,90.8675,269.2453,6.1868e-05,6.97e-06,0.0,0 STARLINK-5137,1 53975U 22125M   24061.34575742  .00000697  00000-0  61868-4 0  9996,2 53975  53.2164 293.2504 0001183  90.8675 269.2453 15.08843661 77934,6917.869,95.437,540.553,538.916,0.0
